[{"OBJECT_NAME":"GEOSCAN 2 (RS92S2)","OBJECT_ID":"2025-155Q","EPOCH":"2026-03-09T23:01:48.939744","MEAN_MOTION":15.28709337,"ECCENTRICITY":0.00085277,"INCLINATION":97.4463,"RA_OF_ASC_NODE":37.5259,"ARG_OF_PERICENTER":140.9505,"MEAN_ANOMALY":219.2352,"EPHEMERIS_TYPE":0,"CLASSIFICATION_TYPE":"U","NORAD_CAT_ID":64890,"ELEMENT_SET_NO":999,"REV_AT_EPOCH":6561,"BSTAR":0.00051551761,"MEAN_MOTION_DOT":0.00014341,"MEAN_MOTION_DDOT":0},{"OBJECT_NAME":"STARLINK-36447","OBJECT_ID":"2026-005X","EPOCH":"2026-03-09T12:50:28.129920","MEAN_MOTION":15.27590263,"ECCENTRICITY":0.0002124,"INCLINATION":43.0012,"RA_OF_ASC_NODE":238.7868,"ARG_OF_PERICENTER":286.3221,"MEAN_ANOMALY":73.7398,"EPHEMERIS_TYPE":0,"CLASSIFICATION_TYPE":"U","NORAD_CAT_ID":67425,"ELEMENT_SET_NO":999,"REV_AT_EPOCH":867,"BSTAR":0.0010776967,"MEAN_MOTION_DOT":0.00029523,"MEAN_MOTION_DDOT":0}]
